EUTELSAT 7C             
1 44334U 19034B   26095.22822667  .00000049  00000+0  00000+0 0  9993
2 44334   0.0644 181.5811 0003340 181.8678 279.2414  1.00271007  6102
BEIDOU-3 IGSO-2         
1 44337U 19035A   26086.82285878 -.00000161  00000+0  00000+0 0  9996
2 44337  55.2326 159.5780 0039045 213.6954 226.2541  1.00291912 24858
COSMOS 2539             
1 44457U 19048A   26095.24820323  .00000082  00000+0  00000+0 0  9990
2 44457   0.0216 120.0310 0000279 358.2544 176.6211  1.00272547 24492
EDRS-C                  
1 44475U 19049A   26095.27403001 -.00000261  00000+0  00000+0 0  9994
2 44475   0.0406 112.5463 0001387 273.0659  49.1173  1.00271254 24473
INTELSAT 39 (IS-39)     
1 44476U 19049B   26095.04419204  .00000000  00000+0  00000+0 0  9992
2 44476   0.0173 209.6657 0000805 310.7937 110.7437  1.00270052 24394
AMOS-17                 
1 44479U 19050A   26095.22267174  .00000110  00000+0  00000+0 0  9996
2 44479   0.0200 279.4400 0001529 107.6259 263.6054  1.00272863 24455
AEHF-5 (USA 292)        
1 44481U 19051A   26095.12753198 -.00000258  00000+0  00000+0 0  9999
2 44481   1.5275 330.8472 0070515   3.3407 358.2427  1.00271325 24520
EUTELSAT 5 WEST B       
1 44624U 19067A   26095.24482322 -.00000041  00000+0  00000+0 0  9996
2 44624   0.0660  12.3503 0003462  12.4462 251.8810  1.00272865 23700
TJS-4                   
1 44637U 19070A   26095.12316836 -.00000169  00000+0  00000+0 0  9998
2 44637   0.0339  64.1873 0002457 347.4114 269.6928  1.00274177 23806
BEIDOU-3 IGSO-3         
1 44709U 19073A   26094.91715300 -.00000178  00000+0  00000+0 0  9996
2 44709  54.9277 281.6865 0041418 188.5176 171.3520  1.00259378 23728
TIBA-1                  
1 44800U 19080A   26095.21155890  .00000157  00000+0  00000+0 0  9998
2 44800   0.0533  11.1551 0001978   4.2129 289.7911  1.00271053 23322
INMARSAT GX5            
1 44801U 19080B   26095.22822667  .00000076  00000+0  00000+0 0  9993
2 44801   0.0612  38.6391 0002018 351.8073 256.2462  1.00273212  6052
JCSAT-18 (KACIFIC 1)    
1 44868U 19091A   26095.22197291 -.00000200  00000+0  00000+0 0  9996
2 44868   0.0396 355.2927 0000344  82.3218 345.8206  1.00271098 23278
ELEKTRO-L 3             
1 44903U 19095A   26094.97564484 -.00000095  00000+0  00000+0 0  9995
2 44903   0.0753  61.4371 0001391 306.4789 252.5355  1.00272372 22971
SHIJIAN-20 (SJ-20)      
1 44910U 19097A   26094.78495895  .00000110  00000+0  00000+0 0  9990
2 44910   4.7304  75.9451 0002999  16.0876  78.4415  1.00087812 22961
TJS-5                   
1 44978U 20002A   26094.83930993 -.00000342  00000+0  00000+0 0  9999
2 44978   0.1984 269.7875 0005511 124.4959 208.5315  1.00270451 22969
GSAT-30                 
1 45026U 20005A   26095.11967902 -.00000164  00000+0  00000+0 0  9991
2 45026   0.0724  82.6022 0002124 348.1205 248.7748  1.00272565 22770
