[{"OBJECT_NAME":"EUTELSAT 7C","OBJECT_ID":"2019-034B","EPOCH":"2026-04-05T05:28:38.784288","MEAN_MOTION":1.00271007,"ECCENTRICITY":0.00033408,"INCLINATION":0.0644,"RA_OF_ASC_NODE":181.5811,"ARG_OF_PERICENTER":181.8678,"MEAN_ANOMALY":279.2414,"EPHEMERIS_TYPE":0,"CLASSIFICATION_TYPE":"U","NORAD_CAT_ID":44334,"ELEMENT_SET_NO":999,"REV_AT_EPOCH":610,"BSTAR":0,"MEAN_MOTION_DOT":4.9e-7,"MEAN_MOTION_DDOT":0},{"OBJECT_NAME":"BEIDOU-3 IGSO-2","OBJECT_ID":"2019-035A","EPOCH":"2026-03-27T19:44:54.998592","MEAN_MOTION":1.00291912,"ECCENTRICITY":0.00390451,"INCLINATION":55.2326,"RA_OF_ASC_NODE":159.578,"ARG_OF_PERICENTER":213.6954,"MEAN_ANOMALY":226.2541,"EPHEMERIS_TYPE":0,"CLASSIFICATION_TYPE":"U","NORAD_CAT_ID":44337,"ELEMENT_SET_NO":999,"REV_AT_EPOCH":2485,"BSTAR":0,"MEAN_MOTION_DOT":-1.61e-6,"MEAN_MOTION_DDOT":0},{"OBJECT_NAME":"COSMOS 2539","OBJECT_ID":"2019-048A","EPOCH":"2026-04-05T05:57:24.759072","MEAN_MOTION":1.00272547,"ECCENTRICITY":2.792e-5,"INCLINATION":0.0216,"RA_OF_ASC_NODE":120.031,"ARG_OF_PERICENTER":358.2544,"MEAN_ANOMALY":176.6211,"EPHEMERIS_TYPE":0,"CLASSIFICATION_TYPE":"U","NORAD_CAT_ID":44457,"ELEMENT_SET_NO":999,"REV_AT_EPOCH":2449,"BSTAR":0,"MEAN_MOTION_DOT":8.2e-7,"MEAN_MOTION_DDOT":0},{"OBJECT_NAME":"EDRS-C","OBJECT_ID":"2019-049A","EPOCH":"2026-04-05T06:34:36.192864","MEAN_MOTION":1.00271254,"ECCENTRICITY":0.00013875,"INCLINATION":0.0406,"RA_OF_ASC_NODE":112.5463,"ARG_OF_PERICENTER":273.0659,"MEAN_ANOMALY":49.1173,"EPHEMERIS_TYPE":0,"CLASSIFICATION_TYPE":"U","NORAD_CAT_ID":44475,"ELEMENT_SET_NO":999,"REV_AT_EPOCH":2447,"BSTAR":0,"MEAN_MOTION_DOT":-2.61e-6,"MEAN_MOTION_DDOT":0},{"OBJECT_NAME":"INTELSAT 39 (IS-39)","OBJECT_ID":"2019-049B","EPOCH":"2026-04-05T01:03:38.192256","MEAN_MOTION":1.00270052,"ECCENTRICITY":8.053e-5,"INCLINATION":0.0173,"RA_OF_ASC_NODE":209.6657,"ARG_OF_PERICENTER":310.7937,"MEAN_ANOMALY":110.7437,"EPHEMERIS_TYPE":0,"CLASSIFICATION_TYPE":"U","NORAD_CAT_ID":44476,"ELEMENT_SET_NO":999,"REV_AT_EPOCH":2439,"BSTAR":0,"MEAN_MOTION_DOT":0,"MEAN_MOTION_DDOT":0},{"OBJECT_NAME":"AMOS-17","OBJECT_ID":"2019-050A","EPOCH":"2026-04-05T05:20:38.838336","MEAN_MOTION":1.00272863,"ECCENTRICITY":0.00015294,"INCLINATION":0.02,"RA_OF_ASC_NODE":279.44,"ARG_OF_PERICENTER":107.6259,"MEAN_ANOMALY":263.6054,"EPHEMERIS_TYPE":0,"CLASSIFICATION_TYPE":"U","NORAD_CAT_ID":44479,"ELEMENT_SET_NO":999,"REV_AT_EPOCH":2445,"BSTAR":0,"MEAN_MOTION_DOT":1.1e-6,"MEAN_MOTION_DDOT":0},{"OBJECT_NAME":"AEHF-5 (USA 292)","OBJECT_ID":"2019-051A","EPOCH":"2026-04-05T03:03:38.763072","MEAN_MOTION":1.00271325,"ECCENTRICITY":0.0070515,"INCLINATION":1.5275,"RA_OF_ASC_NODE":330.8472,"ARG_OF_PERICENTER":3.3407,"MEAN_ANOMALY":358.2427,"EPHEMERIS_TYPE":0,"CLASSIFICATION_TYPE":"U","NORAD_CAT_ID":44481,"ELEMENT_SET_NO":999,"REV_AT_EPOCH":2452,"BSTAR":0,"MEAN_MOTION_DOT":-2.58e-6,"MEAN_MOTION_DDOT":0},{"OBJECT_NAME":"EUTELSAT 5 WEST B","OBJECT_ID":"2019-067A","EPOCH":"2026-04-05T05:52:32.726208","MEAN_MOTION":1.00272865,"ECCENTRICITY":0.00034622,"INCLINATION":0.066,"RA_OF_ASC_NODE":12.3503,"ARG_OF_PERICENTER":12.4462,"MEAN_ANOMALY":251.881,"EPHEMERIS_TYPE":0,"CLASSIFICATION_TYPE":"U","NORAD_CAT_ID":44624,"ELEMENT_SET_NO":999,"REV_AT_EPOCH":2370,"BSTAR":0,"MEAN_MOTION_DOT":-4.1e-7,"MEAN_MOTION_DDOT":0},{"OBJECT_NAME":"TJS-4","OBJECT_ID":"2019-070A","EPOCH":"2026-04-05T02:57:21.746304","MEAN_MOTION":1.00274177,"ECCENTRICITY":0.00024574,"INCLINATION":0.0339,"RA_OF_ASC_NODE":64.1873,"ARG_OF_PERICENTER":347.4114,"MEAN_ANOMALY":269.6928,"EPHEMERIS_TYPE":0,"CLASSIFICATION_TYPE":"U","NORAD_CAT_ID":44637,"ELEMENT_SET_NO":999,"REV_AT_EPOCH":2380,"BSTAR":0,"MEAN_MOTION_DOT":-1.69e-6,"MEAN_MOTION_DDOT":0},{"OBJECT_NAME":"BEIDOU-3 IGSO-3","OBJECT_ID":"2019-073A","EPOCH":"2026-04-04T22:00:42.019200","MEAN_MOTION":1.00259378,"ECCENTRICITY":0.00414188,"INCLINATION":54.9277,"RA_OF_ASC_NODE":281.6865,"ARG_OF_PERICENTER":188.5176,"MEAN_ANOMALY":171.352,"EPHEMERIS_TYPE":0,"CLASSIFICATION_TYPE":"U","NORAD_CAT_ID":44709,"ELEMENT_SET_NO":999,"REV_AT_EPOCH":2372,"BSTAR":0,"MEAN_MOTION_DOT":-1.78e-6,"MEAN_MOTION_DDOT":0},{"OBJECT_NAME":"TIBA-1","OBJECT_ID":"2019-080A","EPOCH":"2026-04-05T05:04:38.688960","MEAN_MOTION":1.00271053,"ECCENTRICITY":0.0001978,"INCLINATION":0.0533,"RA_OF_ASC_NODE":11.1551,"ARG_OF_PERICENTER":4.2129,"MEAN_ANOMALY":289.7911,"EPHEMERIS_TYPE":0,"CLASSIFICATION_TYPE":"U","NORAD_CAT_ID":44800,"ELEMENT_SET_NO":999,"REV_AT_EPOCH":2332,"BSTAR":0,"MEAN_MOTION_DOT":1.57e-6,"MEAN_MOTION_DDOT":0},{"OBJECT_NAME":"INMARSAT GX5","OBJECT_ID":"2019-080B","EPOCH":"2026-04-05T05:28:38.784288","MEAN_MOTION":1.00273212,"ECCENTRICITY":0.00020183,"INCLINATION":0.0612,"RA_OF_ASC_NODE":38.6391,"ARG_OF_PERICENTER":351.8073,"MEAN_ANOMALY":256.2462,"EPHEMERIS_TYPE":0,"CLASSIFICATION_TYPE":"U","NORAD_CAT_ID":44801,"ELEMENT_SET_NO":999,"REV_AT_EPOCH":605,"BSTAR":0,"MEAN_MOTION_DOT":7.6e-7,"MEAN_MOTION_DDOT":0},{"OBJECT_NAME":"JCSAT-18 (KACIFIC 1)","OBJECT_ID":"2019-091A","EPOCH":"2026-04-05T05:19:38.459424","MEAN_MOTION":1.00271098,"ECCENTRICITY":3.442e-5,"INCLINATION":0.0396,"RA_OF_ASC_NODE":355.2927,"ARG_OF_PERICENTER":82.3218,"MEAN_ANOMALY":345.8206,"EPHEMERIS_TYPE":0,"CLASSIFICATION_TYPE":"U","NORAD_CAT_ID":44868,"ELEMENT_SET_NO":999,"REV_AT_EPOCH":2327,"BSTAR":0,"MEAN_MOTION_DOT":-2.0e-6,"MEAN_MOTION_DDOT":0},{"OBJECT_NAME":"ELEKTRO-L 3","OBJECT_ID":"2019-095A","EPOCH":"2026-04-04T23:24:55.714176","MEAN_MOTION":1.00272372,"ECCENTRICITY":0.0001391,"INCLINATION":0.0753,"RA_OF_ASC_NODE":61.4371,"ARG_OF_PERICENTER":306.4789,"MEAN_ANOMALY":252.5355,"EPHEMERIS_TYPE":0,"CLASSIFICATION_TYPE":"U","NORAD_CAT_ID":44903,"ELEMENT_SET_NO":999,"REV_AT_EPOCH":2297,"BSTAR":0,"MEAN_MOTION_DOT":-9.5e-7,"MEAN_MOTION_DDOT":0},{"OBJECT_NAME":"SHIJIAN-20 (SJ-20)","OBJECT_ID":"2019-097A","EPOCH":"2026-04-04T18:50:20.453280","MEAN_MOTION":1.00087812,"ECCENTRICITY":0.0002999,"INCLINATION":4.7304,"RA_OF_ASC_NODE":75.9451,"ARG_OF_PERICENTER":16.0876,"MEAN_ANOMALY":78.4415,"EPHEMERIS_TYPE":0,"CLASSIFICATION_TYPE":"U","NORAD_CAT_ID":44910,"ELEMENT_SET_NO":999,"REV_AT_EPOCH":2296,"BSTAR":0,"MEAN_MOTION_DOT":1.1e-6,"MEAN_MOTION_DDOT":0},{"OBJECT_NAME":"TJS-5","OBJECT_ID":"2020-002A","EPOCH":"2026-04-04T20:08:36.377952","MEAN_MOTION":1.00270451,"ECCENTRICITY":0.0005511,"INCLINATION":0.1984,"RA_OF_ASC_NODE":269.7875,"ARG_OF_PERICENTER":124.4959,"MEAN_ANOMALY":208.5315,"EPHEMERIS_TYPE":0,"CLASSIFICATION_TYPE":"U","NORAD_CAT_ID":44978,"ELEMENT_SET_NO":999,"REV_AT_EPOCH":2296,"BSTAR":0,"MEAN_MOTION_DOT":-3.42e-6,"MEAN_MOTION_DDOT":0},{"OBJECT_NAME":"GSAT-30","OBJECT_ID":"2020-005A","EPOCH":"2026-04-05T02:52:20.267328","MEAN_MOTION":1.00272565,"ECCENTRICITY":0.00021248,"INCLINATION":0.0724,"RA_OF_ASC_NODE":82.6022,"ARG_OF_PERICENTER":348.1205,"MEAN_ANOMALY":248.7748,"EPHEMERIS_TYPE":0,"CLASSIFICATION_TYPE":"U","NORAD_CAT_ID":45026,"ELEMENT_SET_NO":999,"REV_AT_EPOCH":2277,"BSTAR":0,"MEAN_MOTION_DOT":-1.64e-6,"MEAN_MOTION_DDOT":0}]
